{
  "type": "FeatureCollection",
  "features": [
    {
      "type": "Feature",
      "properties": {
        "norad_id": 33901,
        "name": "COSMOS 2251 DEB",
        "group": "cosmos-2251-debris",
        "lat": -17.06291357665349,
        "lon": -152.17133406207736,
        "alt_km": 504.33227754369545,
        "timestamp": "2025-12-25T07:00:34.441114+00:00",
        "meta_object_name": "COSMOS 2251 DEB",
        "meta_object_id": "1993-036DE",
        "meta_epoch": "2025-12-24T19:03:54.099360",
        "meta_mean_motion": 15.17162716,
        "meta_eccentricity": 0.00297463,
        "meta_inclination": 73.7737,
        "meta_ra_of_asc_node": 23.7552,
        "meta_arg_of_pericenter": 153.8707,
        "meta_mean_anomaly": 206.3997,
        "meta_ephemeris_type": 0,
        "meta_classification_type": "U",
        "meta_norad_cat_id": 33901,
        "meta_element_set_no": 999,
        "meta_rev_at_epoch": 89696,
        "meta_bstar": 0.002726855,
        "meta_mean_motion_dot": 0.00055142,
        "meta_mean_motion_ddot": 0,
        "tle_line1": "1 33901U 93036DE  25358.79437615  .00055142  00000+0  27269-2 0  9996",
        "tle_line2": "2 33901  73.7737  23.7552 0029746 153.8707 206.3997 15.17162716896966"
      },
      "geometry": {
        "type": "Point",
        "coordinates": [
          -152.17133406207736,
          -17.06291357665349
        ]
      }
    },
    {
      "type": "Feature",
      "properties": {
        "norad_id": 33905,
        "name": "COSMOS 2251 DEB",
        "group": "cosmos-2251-debris",
        "lat": -28.321258549958372,
        "lon": 122.3732248519707,
        "alt_km": 742.7639987910507,
        "timestamp": "2025-12-25T07:00:34.441124+00:00",
        "meta_object_name": "COSMOS 2251 DEB",
        "meta_object_id": "1993-036DJ",
        "meta_epoch": "2025-12-24T20:08:51.759744",
        "meta_mean_motion": 14.35424686,
        "meta_eccentricity": 0.00581497,
        "meta_inclination": 73.8868,
        "meta_ra_of_asc_node": 294.2481,
        "meta_arg_of_pericenter": 181.1649,
        "meta_mean_anomaly": 210.2208,
        "meta_ephemeris_type": 0,
        "meta_classification_type": "U",
        "meta_norad_cat_id": 33905,
        "meta_element_set_no": 999,
        "meta_rev_at_epoch": 87861,
        "meta_bstar": 0.00052334334,
        "meta_mean_motion_dot": 1.505e-05,
        "meta_mean_motion_ddot": 0,
        "tle_line1": "1 33905U 93036DJ  25358.83948796  .00001505  00000+0  52334-3 0  9998",
        "tle_line2": "2 33905  73.8868 294.2481 0058149 181.1649 210.2208 14.35424686878617"
      },
      "geometry": {
        "type": "Point",
        "coordinates": [
          122.3732248519707,
          -28.321258549958372
        ]
      }
    },
    {
      "type": "Feature",
      "properties": {
        "norad_id": 33906,
        "name": "COSMOS 2251 DEB",
        "group": "cosmos-2251-debris",
        "lat": -2.528291218227367,
        "lon": -63.10563393286218,
        "alt_km": 682.7371836932562,
        "timestamp": "2025-12-25T07:00:34.441134+00:00",
        "meta_object_name": "COSMOS 2251 DEB",
        "meta_object_id": "1993-036DK",
        "meta_epoch": "2025-12-24T21:26:54.057408",
        "meta_mean_motion": 14.57287474,
        "meta_eccentricity": 0.00369432,
        "meta_inclination": 74.0305,
        "meta_ra_of_asc_node": 298.3757,
        "meta_arg_of_pericenter": 326.0719,
        "meta_mean_anomaly": 102.0248,
        "meta_ephemeris_type": 0,
        "meta_classification_type": "U",
        "meta_norad_cat_id": 33906,
        "meta_element_set_no": 999,
        "meta_rev_at_epoch": 88185,
        "meta_bstar": 0.0020044159,
        "meta_mean_motion_dot": 9.136e-05,
        "meta_mean_motion_ddot": 0,
        "tle_line1": "1 33906U 93036DK  25358.89368122  .00009136  00000+0  20044-2 0  9994",
        "tle_line2": "2 33906  74.0305 298.3757 0036943 326.0719 102.0248 14.57287474881852"
      },
      "geometry": {
        "type": "Point",
        "coordinates": [
          -63.10563393286218,
          -2.528291218227367
        ]
      }
    },
    {
      "type": "Feature",
      "properties": {
        "norad_id": 33907,
        "name": "COSMOS 2251 DEB",
        "group": "cosmos-2251-debris",
        "lat": -27.138511045906018,
        "lon": -160.73004812719827,
        "alt_km": 861.0844103683039,
        "timestamp": "2025-12-25T07:00:34.441145+00:00",
        "meta_object_name": "COSMOS 2251 DEB",
        "meta_object_id": "1993-036DL",
        "meta_epoch": "2025-12-24T12:10:09.087168",
        "meta_mean_motion": 14.30612367,
        "meta_eccentricity": 0.0112014,
        "meta_inclination": 74.0701,
        "meta_ra_of_asc_node": 12.2773,
        "meta_arg_of_pericenter": 64.1335,
        "meta_mean_anomaly": 61.9704,
        "meta_ephemeris_type": 0,
        "meta_classification_type": "U",
        "meta_norad_cat_id": 33907,
        "meta_element_set_no": 999,
        "meta_rev_at_epoch": 86748,
        "meta_bstar": 0.0019818061,
        "meta_mean_motion_dot": 5.52e-05,
        "meta_mean_motion_ddot": 0,
        "tle_line1": "1 33907U 93036DL  25358.50704962  .00005520  00000+0  19818-2 0  9999",
        "tle_line2": "2 33907  74.0701  12.2773 0112014  64.1335  61.9704 14.30612367867489"
      },
      "geometry": {
        "type": "Point",
        "coordinates": [
          -160.73004812719827,
          -27.138511045906018
        ]
      }
    },
    {
      "type": "Feature",
      "properties": {
        "norad_id": 33908,
        "name": "COSMOS 2251 DEB",
        "group": "cosmos-2251-debris",
        "lat": -73.38066362392927,
        "lon": 107.17005489989216,
        "alt_km": 814.7660084717609,
        "timestamp": "2025-12-25T07:00:34.441155+00:00",
        "meta_object_name": "COSMOS 2251 DEB",
        "meta_object_id": "1993-036DM",
        "meta_epoch": "2025-12-24T05:50:08.061504",
        "meta_mean_motion": 14.07430663,
        "meta_eccentricity": 0.0222285,
        "meta_inclination": 73.8367,
        "meta_ra_of_asc_node": 185.3525,
        "meta_arg_of_pericenter": 206.7443,
        "meta_mean_anomaly": 152.2096,
        "meta_ephemeris_type": 0,
        "meta_classification_type": "U",
        "meta_norad_cat_id": 33908,
        "meta_element_set_no": 999,
        "meta_rev_at_epoch": 85635,
        "meta_bstar": 0.0024478089,
        "meta_mean_motion_dot": 5.138e-05,
        "meta_mean_motion_ddot": 0,
        "tle_line1": "1 33908U 93036DM  25358.24314886  .00005138  00000+0  24478-2 0  9996",
        "tle_line2": "2 33908  73.8367 185.3525 0222285 206.7443 152.2096 14.07430663856351"
      },
      "geometry": {
        "type": "Point",
        "coordinates": [
          107.17005489989216,
          -73.38066362392927
        ]
      }
    },
    {
      "type": "Feature",
      "properties": {
        "norad_id": 33911,
        "name": "COSMOS 2251 DEB",
        "group": "cosmos-2251-debris",
        "lat": -31.51513403370083,
        "lon": -32.52178719053851,
        "alt_km": 658.263595881298,
        "timestamp": "2025-12-25T07:00:34.441165+00:00",
        "meta_object_name": "COSMOS 2251 DEB",
        "meta_object_id": "1993-036DQ",
        "meta_epoch": "2025-12-24T19:13:55.354368",
        "meta_mean_motion": 14.7515635,
        "meta_eccentricity": 0.00140608,
        "meta_inclination": 74.0905,
        "meta_ra_of_asc_node": 138.3615,
        "meta_arg_of_pericenter": 70.3725,
        "meta_mean_anomaly": 57.3788,
        "meta_ephemeris_type": 0,
        "meta_classification_type": "U",
        "meta_norad_cat_id": 33911,
        "meta_element_set_no": 999,
        "meta_rev_at_epoch": 88822,
        "meta_bstar": 0.0022723023,
        "meta_mean_motion_dot": 0.00015371,
        "meta_mean_motion_ddot": 0,
        "tle_line1": "1 33911U 93036DQ  25358.80133512  .00015371  00000+0  22723-2 0  9998",
        "tle_line2": "2 33911  74.0905 138.3615 0014060  70.3725  57.3788 14.75156350888229"
      },
      "geometry": {
        "type": "Point",
        "coordinates": [
          -32.52178719053851,
          -31.51513403370083
        ]
      }
    },
    {
      "type": "Feature",
      "properties": {
        "norad_id": 33912,
        "name": "COSMOS 2251 DEB",
        "group": "cosmos-2251-debris",
        "lat": 40.242015725333125,
        "lon": -27.9442338188522,
        "alt_km": 718.1552929803056,
        "timestamp": "2025-12-25T07:00:34.441176+00:00",
        "meta_object_name": "COSMOS 2251 DEB",
        "meta_object_id": "1993-036DR",
        "meta_epoch": "2025-12-24T20:59:59.544672",
        "meta_mean_motion": 14.51962437,
        "meta_eccentricity": 0.00113062,
        "meta_inclination": 74.033,
        "meta_ra_of_asc_node": 166.8642,
        "meta_arg_of_pericenter": 246.1481,
        "meta_mean_anomaly": 232.5083,
        "meta_ephemeris_type": 0,
        "meta_classification_type": "U",
        "meta_norad_cat_id": 33912,
        "meta_element_set_no": 999,
        "meta_rev_at_epoch": 88609,
        "meta_bstar": 0.00081491143,
        "meta_mean_motion_dot": 3.266e-05,
        "meta_mean_motion_ddot": 0,
        "tle_line1": "1 33912U 93036DR  25358.87499473  .00003266  00000+0  81491-3 0  9995",
        "tle_line2": "2 33912  74.0330 166.8642 0011306 246.1481 232.5083 14.51962437886093"
      },
      "geometry": {
        "type": "Point",
        "coordinates": [
          -27.9442338188522,
          40.242015725333125
        ]
      }
    }
  ]
}